start=new Date('2023-04-15T00:00:00.000Z').valueOf();
sats=[{"RCS_SIZE":"LARGE","MEAN_ELEMENT_THEORY":"SGP4","ELEMENT_SET_NO":"999","PERIAPSIS":"538.844","EPOCH":"2023-04-14T16:35:34.811232","NORAD_CAT_ID":"53173","EPHEMERIS_TYPE":"0","MEAN_MOTION_DDOT":"0.0000000000000","CENTER_NAME":"EARTH","TLE_LINE2":"2 53173  53.2152 217.6258 0001278  80.6111 279.5025 15.08845752 42310","GP_ID":"230064573","FILE":"3887446","DECAY_DATE":null,"REV_AT_EPOCH":"4231","MEAN_MOTION":"15.08845752","OBJECT_TYPE":"PAYLOAD","ARG_OF_PERICENTER":"80.6111","SEMIMAJOR_AXIS":"6917.863","OBJECT_NAME":"STARLINK-4300","PERIOD":"95.437","APOAPSIS":"540.612","ECCENTRICITY":"0.00012780","TLE_LINE1":"1 53173U 22083AT  23104.69137513  .00003299  00000-0  22521-3 0  9997","RA_OF_ASC_NODE":"217.6258","INCLINATION":"53.2152","SITE":"AFETR","COUNTRY_CODE":"US","MEAN_ANOMALY":"279.5025","CLASSIFICATION_TYPE":"U","MEAN_MOTION_DOT":"0.00003299","BSTAR":"0.00022521000000","LAUNCH_DATE":"2022-07-17","OBJECT_ID":"2022-083AT","REF_FRAME":"TEME","TIME_SYSTEM":"UTC"},{"TLE_LINE2":"2 53174  53.2169 253.6983 0000990  91.7080 268.4026 15.08832169 41159","CENTER_NAME":"EARTH","GP_ID":"230058569","DECAY_DATE":null,"FILE":"3887333","MEAN_MOTION":"15.08832169","OBJECT_TYPE":"PAYLOAD","REV_AT_EPOCH":"4115","MEAN_ELEMENT_THEORY":"SGP4","RCS_SIZE":"LARGE","PERIAPSIS":"539.084","ELEMENT_SET_NO":"999","EPHEMERIS_TYPE":"0","NORAD_CAT_ID":"53174","EPOCH":"2023-04-14T10:54:27.251712","MEAN_MOTION_DDOT":"0.0000000000000","MEAN_MOTION_DOT":"-0.00000865","BSTAR":"-0.00003629200000","LAUNCH_DATE":"2022-07-17","REF_FRAME":"TEME","OBJECT_ID":"2022-083AU","TIME_SYSTEM":"UTC","PERIOD":"95.438","APOAPSIS":"540.454","OBJECT_NAME":"STARLINK-4205","SEMIMAJOR_AXIS":"6917.904","ARG_OF_PERICENTER":"91.7080","RA_OF_ASC_NODE":"253.6983","TLE_LINE1":"1 53174U 22083AU  23104.45448208 -.00000865  00000-0 -36292-4 0  9997","ECCENTRICITY":"0.00009900","SITE":"AFETR","INCLINATION":"53.2169","MEAN_ANOMALY":"268.4026","CLASSIFICATION_TYPE":"U","COUNTRY_CODE":"US"},{"LAUNCH_DATE":"2022-07-17","BSTAR":"0.00005575200000","MEAN_MOTION_DOT":"0.00000600","TIME_SYSTEM":"UTC","REF_FRAME":"TEME","OBJECT_ID":"2022-083AV","RA_OF_ASC_NODE":"252.2297","TLE_LINE1":"1 53175U 22083AV  23104.78199045  .00000600  00000-0  55752-4 0  9993","ECCENTRICITY":"0.00010330","APOAPSIS":"540.444","PERIOD":"95.437","SEMIMAJOR_AXIS":"6917.864","OBJECT_NAME":"STARLINK-4292","ARG_OF_PERICENTER":"77.0074","MEAN_ANOMALY":"283.1034","CLASSIFICATION_TYPE":"U","COUNTRY_CODE":"US","SITE":"AFETR","INCLINATION":"53.2162","GP_ID":"230064590","TLE_LINE2":"2 53175  53.2162 252.2297 0001033  77.0074 283.1034 15.08845292 41845","CENTER_NAME":"EARTH","OBJECT_TYPE":"PAYLOAD","MEAN_MOTION":"15.08845292","REV_AT_EPOCH":"4184","DECAY_DATE":null,"FILE":"3887444","PERIAPSIS":"539.015","ELEMENT_SET_NO":"999","MEAN_ELEMENT_THEORY":"SGP4","RCS_SIZE":"LARGE","MEAN_MOTION_DDOT":"0.0000000000000","EPHEMERIS_TYPE":"0","NORAD_CAT_ID":"53175","EPOCH":"2023-04-14T18:46:03.974880"},{"MEAN_ELEMENT_THEORY":"SGP4","RCS_SIZE":"LARGE","PERIAPSIS":"539.063","ELEMENT_SET_NO":"999","EPHEMERIS_TYPE":"0","EPOCH":"2023-04-14T07:44:19.657536","NORAD_CAT_ID":"53176","MEAN_MOTION_DDOT":"0.0000000000000","TLE_LINE2":"2 53176  53.2156 229.2076 0001013  87.1058 273.0050 15.08833889 41485","CENTER_NAME":"EARTH","GP_ID":"230059070","DECAY_DATE":null,"FILE":"3887333","MEAN_MOTION":"15.08833889","OBJECT_TYPE":"PAYLOAD","REV_AT_EPOCH":"4148","PERIOD":"95.438","APOAPSIS":"540.465","OBJECT_NAME":"STARLINK-4294","SEMIMAJOR_AXIS":"6917.899","ARG_OF_PERICENTER":"87.1058","RA_OF_ASC_NODE":"229.2076","TLE_LINE1":"1 53176U 22083AW  23104.32244974  .00004607  00000-0  30742-3 0  9998","ECCENTRICITY":"0.00010130","SITE":"AFETR","INCLINATION":"53.2156","CLASSIFICATION_TYPE":"U","MEAN_ANOMALY":"273.0050","COUNTRY_CODE":"US","MEAN_MOTION_DOT":"0.00004607","BSTAR":"0.00030742000000","LAUNCH_DATE":"2022-07-17","REF_FRAME":"TEME","OBJECT_ID":"2022-083AW","TIME_SYSTEM":"UTC"},{"LAUNCH_DATE":"2022-07-17","MEAN_MOTION_DOT":"0.00002875","BSTAR":"0.00019860000000","TIME_SYSTEM":"UTC","OBJECT_ID":"2022-083AX","REF_FRAME":"TEME","TLE_LINE1":"1 53177U 22083AX  23104.68401040  .00002875  00000-0  19860-3 0  9990","RA_OF_ASC_NODE":"217.6614","ECCENTRICITY":"0.00011290","APOAPSIS":"540.510","PERIOD":"95.437","ARG_OF_PERICENTER":"95.4621","OBJECT_NAME":"STARLINK-4298","SEMIMAJOR_AXIS":"6917.864","MEAN_ANOMALY":"264.6500","CLASSIFICATION_TYPE":"U","COUNTRY_CODE":"US","SITE":"AFETR","INCLINATION":"53.2171","GP_ID":"230064478","TLE_LINE2":"2 53177  53.2171 217.6614 0001129  95.4621 264.6500 15.08845449 42312","CENTER_NAME":"EARTH","MEAN_MOTION":"15.08845449","OBJECT_TYPE":"PAYLOAD","REV_AT_EPOCH":"4231","FILE":"3887444","DECAY_DATE":null,"ELEMENT_SET_NO":"999","PERIAPSIS":"538.948","RCS_SIZE":"LARGE","MEAN_ELEMENT_THEORY":"SGP4","MEAN_MOTION_DDOT":"0.0000000000000","EPHEMERIS_TYPE":"0","NORAD_CAT_ID":"53177","EPOCH":"2023-04-14T16:24:58.498560"},{"GP_ID":"230064489","TLE_LINE2":"2 53178  53.2160 242.2596 0001016  68.0187 292.0913 15.08854969 41962","CENTER_NAME":"EARTH","OBJECT_TYPE":"PAYLOAD","MEAN_MOTION":"15.08854969","REV_AT_EPOCH":"4196","FILE":"3887444","DECAY_DATE":null,"ELEMENT_SET_NO":"999","PERIAPSIS":"538.997","RCS_SIZE":"LARGE","MEAN_ELEMENT_THEORY":"SGP4","MEAN_MOTION_DDOT":"0.0000000000000","EPHEMERIS_TYPE":"0","EPOCH":"2023-04-14T18:36:47.749824","NORAD_CAT_ID":"53178","LAUNCH_DATE":"2022-07-17","BSTAR":"0.00027384000000","MEAN_MOTION_DOT":"0.00004075","TIME_SYSTEM":"UTC","OBJECT_ID":"2022-083AY","REF_FRAME":"TEME","TLE_LINE1":"1 53178U 22083AY  23104.77555266  .00004075  00000-0  27384-3 0  9995","RA_OF_ASC_NODE":"242.2596","ECCENTRICITY":"0.00010160","PERIOD":"95.437","APOAPSIS":"540.402","ARG_OF_PERICENTER":"68.0187","OBJECT_NAME":"STARLINK-4280","SEMIMAJOR_AXIS":"6917.835","MEAN_ANOMALY":"292.0913","CLASSIFICATION_TYPE":"U","COUNTRY_CODE":"US","SITE":"AFETR","INCLINATION":"53.2160"},{"GP_ID":"230058319","TLE_LINE2":"2 53179  53.2168 203.0841 0001222  97.7524 262.3607 15.08835439 41862","CENTER_NAME":"EARTH","OBJECT_TYPE":"PAYLOAD","MEAN_MOTION":"15.08835439","REV_AT_EPOCH":"4186","DECAY_DATE":null,"FILE":"3887333","PERIAPSIS":"538.914","ELEMENT_SET_NO":"999","MEAN_ELEMENT_THEORY":"SGP4","RCS_SIZE":"LARGE","MEAN_MOTION_DDOT":"0.0000000000000","EPHEMERIS_TYPE":"0","NORAD_CAT_ID":"53179","EPOCH":"2023-04-14T12:04:35.582304","LAUNCH_DATE":"2022-07-17","MEAN_MOTION_DOT":"-0.00001275","BSTAR":"-0.00006203500000","TIME_SYSTEM":"UTC","REF_FRAME":"TEME","OBJECT_ID":"2022-083AZ","RA_OF_ASC_NODE":"203.0841","TLE_LINE1":"1 53179U 22083AZ  23104.50318961 -.00001275  00000-0 -62035-4 0  9990","ECCENTRICITY":"0.00012220","APOAPSIS":"540.605","PERIOD":"95.438","OBJECT_NAME":"STARLINK-4276","SEMIMAJOR_AXIS":"6917.894","ARG_OF_PERICENTER":"97.7524","CLASSIFICATION_TYPE":"U","MEAN_ANOMALY":"262.3607","COUNTRY_CODE":"US","SITE":"AFETR","INCLINATION":"53.2168"},{"MEAN_ELEMENT_THEORY":"SGP4","RCS_SIZE":"LARGE","PERIAPSIS":"539.049","ELEMENT_SET_NO":"999","EPHEMERIS_TYPE":"0","EPOCH":"2023-04-14T10:57:07.124544","NORAD_CAT_ID":"53180","MEAN_MOTION_DDOT":"0.0000000000000","TLE_LINE2":"2 53180  53.2195 203.4999 0001022 104.5246 255.5860 15.08836521 41855","CENTER_NAME":"EARTH","GP_ID":"230059570","DECAY_DATE":null,"FILE":"3887333","MEAN_MOTION":"15.08836521","OBJECT_TYPE":"PAYLOAD","REV_AT_EPOCH":"4185","APOAPSIS":"540.463","PERIOD":"95.438","SEMIMAJOR_AXIS":"6917.891","OBJECT_NAME":"STARLINK-4258","ARG_OF_PERICENTER":"104.5246","RA_OF_ASC_NODE":"203.4999","TLE_LINE1":"1 53180U 22083BA  23104.45633246  .00001570  00000-0  11670-3 0  9996","ECCENTRICITY":"0.00010220","SITE":"AFETR","INCLINATION":"53.2195","MEAN_ANOMALY":"255.5860","CLASSIFICATION_TYPE":"U","COUNTRY_CODE":"US","BSTAR":"0.00011670000000","MEAN_MOTION_DOT":"0.00001570","LAUNCH_DATE":"2022-07-17","REF_FRAME":"TEME","OBJECT_ID":"2022-083BA","TIME_SYSTEM":"UTC"},{"RCS_SIZE":"LARGE","MEAN_ELEMENT_THEORY":"SGP4","ELEMENT_SET_NO":"999","PERIAPSIS":"538.741","NORAD_CAT_ID":"53181","EPOCH":"2023-04-14T12:31:07.144608","EPHEMERIS_TYPE":"0","MEAN_MOTION_DDOT":"0.0000000000000","CENTER_NAME":"EARTH","TLE_LINE2":"2 53181  53.2175 203.1952 0001434  87.9474 272.1682 15.08843960 42509","GP_ID":"230065392","FILE":"3887490","DECAY_DATE":null,"REV_AT_EPOCH":"4250","MEAN_MOTION":"15.08843960","OBJECT_TYPE":"PAYLOAD","ARG_OF_PERICENTER":"87.9474","OBJECT_NAME":"STARLINK-4273","SEMIMAJOR_AXIS":"6917.868","PERIOD":"95.437","APOAPSIS":"540.725","ECCENTRICITY":"0.00014340","TLE_LINE1":"1 53181U 22083BB  23104.52161047  .00001318  00000-0  10086-3 0  9990","RA_OF_ASC_NODE":"203.1952","INCLINATION":"53.2175","SITE":"AFETR","COUNTRY_CODE":"US","CLASSIFICATION_TYPE":"U","MEAN_ANOMALY":"272.1682","BSTAR":"0.00010086000000","MEAN_MOTION_DOT":"0.00001318","LAUNCH_DATE":"2022-07-17","OBJECT_ID":"2022-083BB","REF_FRAME":"TEME","TIME_SYSTEM":"UTC"},{"TLE_LINE2":"2 53182  53.2176 217.3800 0000843 100.0100 260.0987 15.08850438 42328","CENTER_NAME":"EARTH","GP_ID":"230064614","FILE":"3887447","DECAY_DATE":null,"OBJECT_TYPE":"PAYLOAD","MEAN_MOTION":"15.08850438","REV_AT_EPOCH":"4232","RCS_SIZE":"LARGE","MEAN_ELEMENT_THEORY":"SGP4","ELEMENT_SET_NO":"999","PERIAPSIS":"539.130","EPHEMERIS_TYPE":"0","NORAD_CAT_ID":"53182","EPOCH":"2023-04-14T17:55:03.278208","MEAN_MOTION_DDOT":"0.0000000000000","MEAN_MOTION_DOT":"0.00003517","BSTAR":"0.00023890000000","LAUNCH_DATE":"2022-07-17","OBJECT_ID":"2022-083BC","REF_FRAME":"TEME","TIME_SYSTEM":"UTC","APOAPSIS":"540.297","PERIOD":"95.437","ARG_OF_PERICENTER":"100.0100","SEMIMAJOR_AXIS":"6917.848","OBJECT_NAME":"STARLINK-4278","TLE_LINE1":"1 53182U 22083BC  23104.74656572  .00003517  00000-0  23890-3 0  9997","RA_OF_ASC_NODE":"217.3800","ECCENTRICITY":"0.00008430","SITE":"AFETR","INCLINATION":"53.2176","MEAN_ANOMALY":"260.0987","CLASSIFICATION_TYPE":"U","COUNTRY_CODE":"US"}];
